[{"OBJECT_NAME":"STARLINK-5269","OBJECT_ID":"2022-141E","EPOCH":"2026-03-09T06:40:36.283008","MEAN_MOTION":15.08835179,"ECCENTRICITY":0.00014233,"INCLINATION":53.2194,"RA_OF_ASC_NODE":16.0719,"ARG_OF_PERICENTER":103.8186,"MEAN_ANOMALY":256.2964,"EPHEMERIS_TYPE":0,"CLASSIFICATION_TYPE":"U","NORAD_CAT_ID":54161,"ELEMENT_SET_NO":999,"REV_AT_EPOCH":18565,"BSTAR":-3.9571199e-5,"MEAN_MOTION_DOT":-9.18e-6,"MEAN_MOTION_DDOT":0},{"OBJECT_NAME":"SITRO-AIS 26","OBJECT_ID":"2024-039S","EPOCH":"2026-03-09T23:26:14.805600","MEAN_MOTION":14.92446154,"ECCENTRICITY":0.01456696,"INCLINATION":95.3934,"RA_OF_ASC_NODE":166.8629,"ARG_OF_PERICENTER":315.8086,"MEAN_ANOMALY":43.1576,"EPHEMERIS_TYPE":0,"CLASSIFICATION_TYPE":"U","NORAD_CAT_ID":59067,"ELEMENT_SET_NO":999,"REV_AT_EPOCH":10991,"BSTAR":0.00034113831,"MEAN_MOTION_DOT":4.263e-5,"MEAN_MOTION_DDOT":0}]
